[
 {
 "street":"Aldborough Prde",
 "postCode":"D1",
 "latitude":53.354826,
 "longitude":-6.245476,
 "spaces":"1"
 },
 {
 "street":"Belvedere Rd",
 "postCode":"D1",
 "latitude":53.359851,
 "longitude":-6.2593357,
 "spaces":"1"
 },
 {
 "street":"Capel St",
 "postCode":"D1",
 "latitude":53.348177,
 "longitude":-6.26869,
 "spaces":"1"
 },
 {
 "street":"Cathal Brugha",
 "postCode":"D1",
 "latitude":53.352071,
 "longitude":-6.26063,
 "spaces":"1"
 },
 {
 "street":"Cathedral St",
 "postCode":"D1",
 "latitude":53.350442,
 "longitude":-6.26003,
 "spaces":"2"
 },
 {
 "street":"Dorset Street Lr",
 "postCode":"D1",
 "latitude":53.358748,
 "longitude":-6.262285,
 "spaces":"1"
 },
 {
 "street":"Hardwick Street",
 "postCode":"D1",
 "latitude":53.355638,
 "longitude":-6.264249,
 "spaces":"1"
 },
 {
 "street":"Hill St",
 "postCode":"D1",
 "latitude":0,
 "longitude":0,
 "spaces":"4"
 },
 {
 "street":"Jervis St",
 "postCode":"D1",
 "latitude":0,
 "longitude":0,
 "spaces":"4"
 },
 {
 "street":"Mary St",
 "postCode":"D1",
 "latitude":0,
 "longitude":0,
 "spaces":"2"
 },
 {
 "street":"Northumberl. Sq",
 "postCode":"D1",
 "latitude":0,
 "longitude":0,
 "spaces":"1"
 },
 {
 "street":"Parnell Sq North",
 "postCode":"D1",
 "latitude":0,
 "longitude":0,
 "spaces":"2"
 },
 {
 "street":"Parnell St",
 "postCode":"D1",
 "latitude":0,
 "longitude":0,
 "spaces":"1"
 },
 {
 "street":"Sherrard St Upr",
 "postCode":"D1",
 "latitude":0,
 "longitude":0,
 "spaces":"1"
 },
 {
 "street":"Stephens St Lr",
 "postCode":"D1",
 "latitude":0,
 "longitude":0,
 "spaces":"1"
 },
 {
 "street":"Strand St Great",
 "postCode":"D1",
 "latitude":0,
 "longitude":0,
 "spaces":"2"
 },
 {
 "street":"Summer St Nth",
 "postCode":"D1",
 "latitude":0,
 "longitude":0,
 "spaces":"1"
 },
 {
 "street":"Talbot Place",
 "postCode":"D1",
 "latitude":0,
 "longitude":0,
 "spaces":"1"
 },
 {
 "street":"Talbot St",
 "postCode":"D1",
 "latitude":0,
 "longitude":0,
 "spaces":"1"
 },
 {
 "street":"Aston Quay",
 "postCode":"D2",
 "latitude":0,
 "longitude":0,
 "spaces":"1"
 },
 {
 "street":"Baggot St Lower",
 "postCode":"D2",
 "latitude":0,
 "longitude":0,
 "spaces":"1"
 },
 {
 "street":"Baggot St Upper",
 "postCode":"D2",
 "latitude":0,
 "longitude":0,
 "spaces":"2"
 },
 {
 "street":"Bath Street",
 "postCode":"D2",
 "latitude":0,
 "longitude":0,
 "spaces":"1"
 },
 {
 "street":"Castle St",
 "postCode":"D2",
 "latitude":0,
 "longitude":0,
 "spaces":"2"
 },
 {
 "street":"Clanwilliam Tce",
 "postCode":"D2",
 "latitude":0,
 "longitude":0,
 "spaces":"1"
 },
 {
 "street":"Clonmel St/Plce",
 "postCode":"D2",
 "latitude":0,
 "longitude":0,
 "spaces":"4"
 },
 {
 "street":"Conway Court",
 "postCode":"D2",
 "latitude":0,
 "longitude":0,
 "spaces":"1"
 },
 {
 "street":"Dawson St",
 "postCode":"D2",
 "latitude":0,
 "longitude":0,
 "spaces":"1"
 },
 {
 "street":"D'Olier St Wst",
 "postCode":"D2",
 "latitude":0,
 "longitude":0,
 "spaces":"2"
 },
 {
 "street":"Drury St",
 "postCode":"D2",
 "latitude":0,
 "longitude":0,
 "spaces":"2"
 },
 {
 "street":"Earl St South",
 "postCode":"D2",
 "latitude":0,
 "longitude":0,
 "spaces":"1"
 },
 {
 "street":"Earlsford Trce",
 "postCode":"D2",
 "latitude":0,
 "longitude":0,
 "spaces":"1"
 },
 {
 "street":"Ely Place",
 "postCode":"D2",
 "latitude":0,
 "longitude":0,
 "spaces":"1"
 },
 {
 "street":"Erne Terrce Nth",
 "postCode":"D2",
 "latitude":0,
 "longitude":0,
 "spaces":"2"
 },
 {
 "street":"Fade St",
 "postCode":"D2",
 "latitude":0,
 "longitude":0,
 "spaces":"1"
 },
 {
 "street":"Fitzwilliam Lane",
 "postCode":"D2",
 "latitude":0,
 "longitude":0,
 "spaces":"1"
 },
 {
 "street":"Fleet St",
 "postCode":"D2",
 "latitude":0,
 "longitude":0,
 "spaces":"1"
 },
 {
 "street":"Foster Place",
 "postCode":"D2",
 "latitude":0,
 "longitude":0,
 "spaces":"1"
 },
 {
 "street":"Granby St",
 "postCode":"D2",
 "latitude":0,
 "longitude":0,
 "spaces":"2"
 },
 {
 "street":"Grand Canal Qy",
 "postCode":"D2",
 "latitude":0,
 "longitude":0,
 "spaces":"2"
 },
 {
 "street":"Grand Canal St",
 "postCode":"D2",
 "latitude":0,
 "longitude":0,
 "spaces":"2"
 },
 {
 "street":"Hatch St Lwr",
 "postCode":"D2",
 "latitude":0,
 "longitude":0,
 "spaces":"1"
 },
 {
 "street":"Hatch St Upr",
 "postCode":"D2",
 "latitude":0,
 "longitude":0,
 "spaces":"1"
 },
 {
 "street":"Herbert St",
 "postCode":"D2",
 "latitude":0,
 "longitude":0,
 "spaces":"3"
 },
 {
 "street":"Hogan Place",
 "postCode":"D2",
 "latitude":0,
 "longitude":0,
 "spaces":"1"
 },
 {
 "street":"Holles St",
 "postCode":"D2",
 "latitude":0,
 "longitude":0,
 "spaces":"1"
 },
 {
 "street":"King St South",
 "postCode":"D2",
 "latitude":0,
 "longitude":0,
 "spaces":"1"
 },
 {
 "street":"Mercer Health Cntr",
 "postCode":"D2",
 "latitude":0,
 "longitude":0,
 "spaces":"2"
 },
 {
 "street":"Merrion Sq East",
 "postCode":"D2",
 "latitude":0,
 "longitude":0,
 "spaces":"1"
 },
 {
 "street":"Merrion Sq West",
 "postCode":"D2",
 "latitude":0,
 "longitude":0,
 "spaces":"1"
 },
 {
 "street":"Merrion Sqr Sth",
 "postCode":"D2",
 "latitude":0,
 "longitude":0,
 "spaces":"2"
 },
 {
 "street":"Molesworth St",
 "postCode":"D2",
 "latitude":0,
 "longitude":0,
 "spaces":"2"
 },
 {
 "street":"Montague St",
 "postCode":"D2",
 "latitude":0,
 "longitude":0,
 "spaces":"1"
 },
 {
 "street":"Mount St Upr",
 "postCode":"D2",
 "latitude":0,
 "longitude":0,
 "spaces":"1"
 },
 {
 "street":"Nassau St",
 "postCode":"D2",
 "latitude":0,
 "longitude":0,
 "spaces":"1"
 },
 {
 "street":"New Bride St",
 "postCode":"D2",
 "latitude":0,
 "longitude":0,
 "spaces":"2"
 },
 {
 "street":"Noel Purcell Way Nth",
 "postCode":"D2",
 "latitude":0,
 "longitude":0,
 "spaces":"1"
 },
 {
 "street":"Georges St Nth",
 "postCode":"D2",
 "latitude":0,
 "longitude":0,
 "spaces":"2"
 },
 {
 "street":"Palace St Wst",
 "postCode":"D2",
 "latitude":0,
 "longitude":0,
 "spaces":"1"
 },
 {
 "street":"Pearse Grove",
 "postCode":"D2",
 "latitude":0,
 "longitude":0,
 "spaces":"2"
 },
 {
 "street":"Pearse St",
 "postCode":"D2",
 "latitude":0,
 "longitude":0,
 "spaces":"1"
 },
 {
 "street":"South King St",
 "postCode":"D2",
 "latitude":0,
 "longitude":0,
 "spaces":"1"
 },
 {
 "street":"South William St",
 "postCode":"D2",
 "latitude":0,
 "longitude":0,
 "spaces":"1"
 },
 {
 "street":"St Stephens Green Nth",
 "postCode":"D2",
 "latitude":0,
 "longitude":0,
 "spaces":"1"
 },
 {
 "street":"Stephen St Lower",
 "postCode":"D2",
 "latitude":0,
 "longitude":0,
 "spaces":"2"
 },
 {
 "street":"Wellington Quay",
 "postCode":"D2",
 "latitude":0,
 "longitude":0,
 "spaces":"1"
 }
 ]
